ALOS-2                  
1 39766U 14029A   26196.95076909 -.00000009  00000+0  56584-5 0  9998
2 39766  97.9235 293.7030 0001576  91.4209 268.7183 14.79466124655832
KAZEOSAT 2              
1 40010U 14033A   26196.92523230  .00001001  00000+0  12174-3 0  9995
2 40010  97.5391  35.0174 0007409 216.3436 143.7278 14.85504261653222
HODOYOSHI-4             
1 40011U 14033B   26196.94672286  .00001498  00000+0  16741-3 0  9998
2 40011  97.5453  20.3826 0022661 206.8551 153.1496 14.88193927653089
DEIMOS-2                
1 40013U 14033D   26196.92041135  .00000602  00000+0  61840-4 0  9998
2 40013  97.5789  70.3952 0000966 108.3837 251.7489 14.93795032642014
HODOYOSHI-3             
1 40015U 14033F   26196.40994857  .00000453  00000+0  58227-4 0  9990
2 40015  97.6445 358.3197 0031303 261.1575  98.6096 14.85437358651817
SPOT 7                  
1 40053U 14034A   26196.94673106  .00000051  00000+0  19667-4 0  9992
2 40053  98.0619 258.6952 0001603  94.1131 266.0253 14.60980682641338
SKYSAT-B                
1 40072U 14037D   26196.83755785  .00000600  00000+0  71934-4 0  9993
2 40072  98.3854 157.4397 0005626 170.7304 189.4016 14.88092801650224
WORLDVIEW-3 (WV-3)      
1 40115U 14048A   26196.87094660  .00000388  00000+0  51721-4 0  9990
2 40115  97.8556 271.3068 0001352 154.8862 205.2419 14.85064838646168
GAOFEN-2                
1 40118U 14049A   26196.95988175  .00000334  00000+0  50060-4 0  9992
2 40118  98.0101 261.1377 0008297 132.1094 228.0825 14.80928713643494
YAOGAN-21               
1 40143U 14053A   26196.93823438  .00003244  00000+0  12585-3 0  9995
2 40143  97.1455 235.9442 0007790   5.9212 354.2118 15.26764273659340
YAOGAN-22               
1 40275U 14063A   26196.93297999 -.00000051  00000+0 -10376-4 0  9991
2 40275 100.7763 348.6881 0006877 123.6724 236.5043 13.15531523563595
ASNARO                  
1 40298U 14070A   26196.93445565  .00004049  00000+0  19446-3 0  9993
2 40298  97.3448 272.2767 0004810  83.9860 276.1923 15.19386652648374
YAOGAN-24               
1 40310U 14072A   26196.95855541  .00000646  00000+0  10114-3 0  9993
2 40310  98.1523 334.5414 0014659 167.1802 192.9783 14.76120266627966
CBERS 4                 
1 40336U 14079A   26196.96344258 -.00000091  00000+0 -16961-4 0  9990
2 40336  98.3519 252.8897 0000789  51.9803 308.1454 14.35515640608085
YAOGAN-26               
1 40362U 14088A   26196.96525499  .00009503  00000+0  18061-3 0  9994
2 40362  97.0646 196.5228 0001712 336.0787  24.0384 15.48461494642152
SMAP                    
1 40376U 15003A   26196.93447050  .00000179  00000+0  43656-4 0  9999
2 40376  98.1284 203.6228 0001603  94.6899 265.4486 14.63389506611820
KOMPSAT-3A              
1 40536U 15014A   26196.94742773  .00021247  00000+0  29155-3 0  9996
2 40536  97.6891 190.4455 0056206  73.0230 287.7173 15.55456731626283
SENTINEL-2A             
1 40697U 15028A   26196.95595775 -.00000028  00000+0  58463-5 0  9999
2 40697  98.5683 271.3977 0001279  94.7392 265.3937 14.30814211577847
GAOFEN-8                
1 40701U 15030A   26196.94630310  .00014719  00000+0  29314-3 0  9994
2 40701  97.6886  32.0635 0009937  93.2183 267.0203 15.46966415615897
CARBONITE 1 (CBNT-1)    
1 40718U 15032D   26196.98099049  .00001249  00000+0  15723-3 0  9999
2 40718  97.6512  13.8444 0013931 194.3878 165.6942 14.83669960593612
YAOGAN-27               
1 40878U 15040A   26196.99247825  .00000033  00000+0  19835-3 0  9991
2 40878 100.1166 182.1271 0008564 143.3356 216.8345 13.16072857521450
GAOFEN-9 01             
1 40894U 15047A   26196.94248529  .00000471  00000+0  63891-4 0  9991
2 40894  97.6264 231.3294 0028411  48.1399 312.2233 14.82935786584450
YAOGAN-28               
1 41026U 15064A   26196.94815316  .00003505  00000+0  13170-3 0  9997
2 41026  97.3113 334.6356 0012076  90.7554 269.5070 15.27765589595075
YAOGAN-29               
1 41038U 15069A   26196.98645880  .00000526  00000+0  71203-4 0  9998
2 41038  98.0017 225.6631 0000672  15.0271 345.0963 14.83108424574897
KENT RIDGE 1            
1 41167U 15077B   26196.77914682  .00002417  00000+0  67771-4 0  9992
2 41167  14.9805  53.3190 0008310 283.4619  76.4777 15.23285837585464
GAOFEN-4                
1 41194U 15083A   26196.86316803 -.00000345  00000+0  00000+0 0  9996
2 41194   0.4294  83.8361 0004222 124.6048 141.6998  1.00272444 38816
JASON-3                 
1 41240U 16002A   26196.89596164 -.00000022  00000+0  16022-3 0  9990
2 41240  66.0416  65.4790 0008175 270.8998  89.1085 12.87628701490940
SENTINEL-3A             
1 41335U 16011A   26196.89967383  .00000047  00000+0  37626-4 0  9990
2 41335  98.6237 263.8689 0001357  89.6135 270.5201 14.26739869542152
ZIYUAN 3-02 (ZY 3-02)   
1 41556U 16033A   26196.93307935  .00002652  00000+0  12089-3 0  9994
2 41556  97.3827 272.1547 0014153 182.3554 177.7617 15.21438132562356
CARTOSAT-2C             
1 41599U 16040A   26196.97499578  .00002692  00000+0  13079-3 0  9992
2 41599  97.4468 256.5542 0009484  42.6030 317.5939 15.19267519558086
