OBJECT_NAME,OBJECT_ID,EPOCH,MEAN_MOTION,ECCENTRICITY,INCLINATION,RA_OF_ASC_NODE,ARG_OF_PERICENTER,MEAN_ANOMALY,EPHEMERIS_TYPE,CLASSIFICATION_TYPE,NORAD_CAT_ID,ELEMENT_SET_NO,REV_AT_EPOCH,BSTAR,MEAN_MOTION_DOT,MEAN_MOTION_DDOT
ALOS-2,2014-029A,2026-07-15T22:49:06.449376,14.79466124,.00015764,97.9235,293.7030,91.4209,268.7183,0,U,39766,999,65583,.5658379E-5,-.9E-7,0
KAZEOSAT 2,2014-033A,2026-07-15T22:12:20.070720,14.85504261,.00074096,97.5391,35.0174,216.3436,143.7278,0,U,40010,999,65322,.12174412E-3,.1001E-4,0
HODOYOSHI-4,2014-033B,2026-07-15T22:43:16.855104,14.88193927,.00226615,97.5453,20.3826,206.8551,153.1496,0,U,40011,999,65308,.1674148E-3,.1498E-4,0
DEIMOS-2,2014-033D,2026-07-15T22:05:23.540640,14.93795032,.0000966,97.5789,70.3952,108.3837,251.7489,0,U,40013,999,64201,.61840282E-4,.602E-5,0
HODOYOSHI-3,2014-033F,2026-07-15T09:50:19.556448,14.85437358,.00313032,97.6445,358.3197,261.1575,98.6096,0,U,40015,999,65181,.58226648E-4,.453E-5,0
SPOT 7,2014-034A,2026-07-15T22:43:17.563584,14.60980682,.00016039,98.0619,258.6952,94.1131,266.0253,0,U,40053,999,64133,.19667332E-4,.51E-6,0
SKYSAT-B,2014-037D,2026-07-15T20:06:04.998240,14.88092801,.00056261,98.3854,157.4397,170.7304,189.4016,0,U,40072,999,65022,.71933668E-4,.6E-5,0
WORLDVIEW-3 (WV-3),2014-048A,2026-07-15T20:54:09.786240,14.85064838,.00013524,97.8556,271.3068,154.8862,205.2419,0,U,40115,999,64616,.51720941E-4,.388E-5,0
GAOFEN-2,2014-049A,2026-07-15T23:02:13.783200,14.80928713,.00082974,98.0101,261.1377,132.1094,228.0825,0,U,40118,999,64349,.50060364E-4,.334E-5,0
YAOGAN-21,2014-053A,2026-07-15T22:31:03.450432,15.26764273,.00077901,97.1455,235.9442,5.9212,354.2118,0,U,40143,999,65934,.12584613E-3,.3244E-4,0
YAOGAN-22,2014-063A,2026-07-15T22:23:29.471136,13.15531523,.00068777,100.7763,348.6881,123.6724,236.5043,0,U,40275,999,56359,-.10375588E-4,-.51E-6,0
ASNARO,2014-070A,2026-07-15T22:25:36.968160,15.19386652,.00048102,97.3448,272.2767,83.9860,276.1923,0,U,40298,999,64837,.19445653E-3,.4049E-4,0
YAOGAN-24,2014-072A,2026-07-15T23:00:19.187424,14.76120266,.00146596,98.1523,334.5414,167.1802,192.9783,0,U,40310,999,62796,.10114047E-3,.646E-5,0
CBERS 4,2014-079A,2026-07-15T23:07:21.438912,14.35515640,.00007899,98.3519,252.8897,51.9803,308.1454,0,U,40336,999,60808,-.16961347E-4,-.91E-6,0
YAOGAN-26,2014-088A,2026-07-15T23:09:58.031136,15.48461494,.00017129,97.0646,196.5228,336.0787,24.0384,0,U,40362,999,64215,.18060662E-3,.9503E-4,0
SMAP,2015-003A,2026-07-15T22:25:38.251200,14.63389506,.00016037,98.1284,203.6228,94.6899,265.4486,0,U,40376,999,61182,.4365588E-4,.179E-5,0
KOMPSAT-3A,2015-014A,2026-07-15T22:44:17.755872,15.55456731,.00562068,97.6891,190.4455,73.0230,287.7173,0,U,40536,999,62628,.29154698E-3,.21247E-3,0
SENTINEL-2A,2015-028A,2026-07-15T22:56:34.749600,14.30814211,.00012798,98.5683,271.3977,94.7392,265.3937,0,U,40697,999,57784,.5846293E-5,-.28E-6,0
GAOFEN-8,2015-030A,2026-07-15T22:42:40.587840,15.46966415,.00099376,97.6886,32.0635,93.2183,267.0203,0,U,40701,999,61589,.293139E-3,.14719E-3,0
CARBONITE 1 (CBNT-1),2015-032D,2026-07-15T23:32:37.578336,14.83669960,.00139318,97.6512,13.8444,194.3878,165.6942,0,U,40718,999,59361,.15723356E-3,.1249E-4,0
YAOGAN-27,2015-040A,2026-07-15T23:49:10.120800,13.16072857,.00085642,100.1166,182.1271,143.3356,216.8345,0,U,40878,999,52145,.19835188E-3,.33E-6,0
GAOFEN-9 01,2015-047A,2026-07-15T22:37:10.729056,14.82935786,.00284119,97.6264,231.3294,48.1399,312.2233,0,U,40894,999,58445,.63890891E-4,.471E-5,0
YAOGAN-28,2015-064A,2026-07-15T22:45:20.433024,15.27765589,.00120766,97.3113,334.6356,90.7554,269.5070,0,U,41026,999,59507,.13170389E-3,.3505E-4,0
YAOGAN-29,2015-069A,2026-07-15T23:40:30.040320,14.83108424,.00006724,98.0017,225.6631,15.0271,345.0963,0,U,41038,999,57489,.71202724E-4,.526E-5,0
KENT RIDGE 1,2015-077B,2026-07-15T18:41:58.285248,15.23285837,.00083101,14.9805,53.3190,283.4619,76.4777,0,U,41167,999,58546,.67771257E-4,.2417E-4,0
GAOFEN-4,2015-083A,2026-07-15T20:42:57.717792,1.00272444,.0004222,0.4294,83.8361,124.6048,141.6998,0,U,41194,999,3881,0,-.345E-5,0
JASON-3,2016-002A,2026-07-15T21:30:11.085696,12.87628701,.00081754,66.0416,65.4790,270.8998,89.1085,0,U,41240,999,49094,.16022224E-3,-.22E-6,0
SENTINEL-3A,2016-011A,2026-07-15T21:35:31.818912,14.26739869,.00013578,98.6237,263.8689,89.6135,270.5201,0,U,41335,999,54215,.37625562E-4,.47E-6,0
ZIYUAN 3-02 (ZY 3-02),2016-033A,2026-07-15T22:23:38.055840,15.21438132,.00141535,97.3827,272.1547,182.3554,177.7617,0,U,41556,999,56235,.12088794E-3,.2652E-4,0
CARTOSAT-2C,2016-040A,2026-07-15T23:23:59.635392,15.19267519,.00094841,97.4468,256.5542,42.6030,317.5939,0,U,41599,999,55808,.13078879E-3,.2692E-4,0
